NORAD_CAT_ID,OBJECT_NAME,OBJECT_TYPE,EPOCH,MEAN_MOTION,ECCENTRICITY,INCLINATION,RA_OF_ASC_NODE,ARG_OF_PERICENTER,MEAN_ANOMALY,BSTAR,MEAN_MOTION_DOT,MEAN_MOTION_DDOT,TLE_LINE0,TLE_LINE1,TLE_LINE2,SEMIMAJOR_AXIS,PERIOD,APOGEE,PERIGEE,DECAYED
54067.0,STARLINK-5174,PAYLOAD,2022-12-20 21:34:05,15.08842447,0.0002336,53.2171,217.734,33.2811,326.8328,-0.00010549,-1.967e-05,0.0,0 STARLINK-5174,1 54067U 22136S   22354.89867713 -.00001967  00000-0 -10549-3 0  9998,2 54067  53.2171 217.7340 0002336  33.2811 326.8328 15.08842447  9979,6917.873000000001,95.437,541.354,538.122,0.0
54067.0,STARLINK-5174,PAYLOAD,2022-12-22 00:35:39,15.08835735,0.0002038,53.2169,212.6777,40.3016,319.8127,-0.00014315,-2.566e-05,0.0,0 STARLINK-5174,1 54067U 22136S   22356.02476529 -.00002566  00000-0 -14315-3 0  9997,2 54067  53.2169 212.6777 0002038  40.3016 319.8127 15.08835735 10141,6917.893,95.438,541.168,538.349,0.0
54067.0,STARLINK-5174,PAYLOAD,2022-12-22 14:54:07,15.08868696,0.0002135,53.2164,210.0022,33.0807,327.0318,-0.00045168,-7.475e-05,0.0,0 STARLINK-5174,1 54067U 22136S   22356.62091603 -.00007475  00000-0 -45168-3 0  9993,2 54067  53.2164 210.0022 0002135  33.0807 327.0318 15.08868696  9756,6917.793000000002,95.436,541.135,538.181,0.0
54067.0,STARLINK-5174,PAYLOAD,2022-12-22 22:51:03,15.08832609,0.0002062,53.2164,208.5155,38.3641,321.7497,8.2791e-05,1.029e-05,0.0,0 STARLINK-5174,1 54067U 22136S   22356.95212016  .00001029  00000-0  82791-4 0  9993,2 54067  53.2164 208.5155 0002062  38.3641 321.7497 15.08832609 10282,6917.903,95.438,541.194,538.342,0.0
54067.0,STARLINK-5174,PAYLOAD,2022-12-23 06:47:58,15.08831689,0.000205,53.2168,207.0284,41.3708,318.7439,9.533e-05,1.229e-05,0.0,0 STARLINK-5174,1 54067U 22136S   22357.28332172  .00001229  00000-0  95330-4 0  9991,2 54067  53.2168 207.0284 0002050  41.3708 318.7439 15.08831689  9858,6917.906,95.438,541.189,538.3530000000002,0.0
54067.0,STARLINK-5174,PAYLOAD,2022-12-23 14:44:55,15.08828998,0.0001995,53.2165,205.5422,51.2189,308.8981,1.5994e-05,-3.4e-07,0.0,0 STARLINK-5174,1 54067U 22136S   22357.61452918 -.00000034  00000-0  15994-4 0  9991,2 54067  53.2165 205.5422 0001995  51.2189 308.8981 15.08828998  9909,6917.9140000000025,95.438,541.159,538.399,0.0
54067.0,STARLINK-5174,PAYLOAD,2022-12-24 00:17:14,15.08826115,0.0001985,53.2168,203.7578,48.2218,311.8944,-7.2692e-06,-4.04e-06,0.0,0 STARLINK-5174,1 54067U 22136S   22358.01197458 -.00000404  00000-0 -72692-5 0  9992,2 54067  53.2168 203.7578 0001985  48.2218 311.8944 15.08826115 10445,6917.9230000000025,95.438,541.161,538.415,0.0
54067.0,STARLINK-5174,PAYLOAD,2022-12-24 06:38:46,15.08831205,0.0002013,53.2166,202.5686,43.1303,316.9846,1.7257e-05,-1.4e-07,0.0,0 STARLINK-5174,1 54067U 22136S   22358.27693206 -.00000014  00000-0  17257-4 0  9993,2 54067  53.2166 202.5686 0002013  43.1303 316.9846 15.08831205 10007,6917.906999999997,95.438,541.165,538.38,0.0
54067.0,STARLINK-5174,PAYLOAD,2022-12-24 20:57:14,15.08838421,0.0002026,53.2167,199.8921,43.7031,316.4122,-2.6825e-06,-3.31e-06,0.0,0 STARLINK-5174,1 54067U 22136S   22358.87309008 -.00000331  00000-0 -26825-5 0  9998,2 54067  53.2167 199.8921 0002026  43.7031 316.4122 15.08838421 10577,6917.885,95.438,541.1519999999998,538.349,0.0
54067.0,STARLINK-5174,PAYLOAD,2022-12-25 06:29:33,15.08841356,0.0002065,53.2166,198.108,43.3464,316.769,9.8007e-06,-1.32e-06,0.0,0 STARLINK-5174,1 54067U 22136S   22359.27052789 -.00000132  00000-0  98007-5 0  9993,2 54067  53.2166 198.1080 0002065  43.3464 316.7690 15.08841356 10151,6917.876,95.437,541.17,538.313,0.0
54067.0,STARLINK-5174,PAYLOAD,2022-12-25 16:01:52,15.08837181,0.0002078,53.2167,196.3236,42.8839,317.2315,9.3659e-05,1.203e-05,0.0,0 STARLINK-5174,1 54067U 22136S   22359.66796748  .00001203  00000-0  93659-4 0  9992,2 54067  53.2167 196.3236 0002078  42.8839 317.2315 15.08837181 10217,6917.889,95.438,541.192,538.316,0.0
54067.0,STARLINK-5174,PAYLOAD,2022-12-26 12:41:52,15.0884124,0.0002151,53.2165,192.458,44.9291,315.1875,4.9692e-05,5.03e-06,0.0,0 STARLINK-5174,1 54067U 22136S   22360.52908539  .00000503  00000-0  49692-4 0  9992,2 54067  53.2165 192.4580 0002151  44.9291 315.1875 15.08841240 10344,6917.877,95.437,541.23,538.254,0.0
54067.0,STARLINK-5174,PAYLOAD,2022-12-26 19:03:25,15.08836399,0.0002191,53.2168,191.2683,45.9768,314.1404,-1.363e-05,-5.05e-06,0.0,0 STARLINK-5174,1 54067U 22136S   22360.79405080 -.00000505  00000-0 -13630-4 0  9991,2 54067  53.2168 191.2683 0002191  45.9768 314.1404 15.08836399 10865,6917.891,95.438,541.2719999999998,538.241,0.0
54067.0,STARLINK-5174,PAYLOAD,2022-12-27 12:32:40,15.0883889,0.0002151,53.2169,187.9973,45.8107,314.3062,-3.0219e-05,-7.69e-06,0.0,0 STARLINK-5174,1 54067U 22136S   22361.52268988 -.00000769  00000-0 -30219-4 0  9991,2 54067  53.2169 187.9973 0002151  45.8107 314.3062 15.08838890 10491,6917.884,95.438,541.237,538.261,0.0
54067.0,STARLINK-5174,PAYLOAD,2022-12-27 22:04:58,15.08844273,0.0002157,53.2167,186.2129,46.7012,313.416,-2.5754e-05,-6.98e-06,0.0,0 STARLINK-5174,1 54067U 22136S   22361.92012571 -.00000698  00000-0 -25754-4 0  9999,2 54067  53.2167 186.2129 0002157  46.7012 313.4160 15.08844273 11037,6917.8669999999975,95.437,541.225,538.24,0.0
54067.0,STARLINK-5174,PAYLOAD,2022-12-28 15:34:13,15.08832268,0.0002056,53.216,182.9419,43.6772,316.4383,0.00018797,2.704e-05,0.0,0 STARLINK-5174,1 54067U 22136S   22362.64876311  .00002704  00000-0  18797-3 0  9995,2 54067  53.2160 182.9419 0002056  43.6772 316.4383 15.08832268 10661,6917.904,95.438,541.191,538.347,0.0
54067.0,STARLINK-5174,PAYLOAD,2022-12-29 12:14:14,15.088343599999998,0.0002296999999999,53.2162,179.0757,45.6103,314.5077,-6.4802e-05,-1.319e-05,0.0,0 STARLINK-5174,1 54067U 22136S   22363.50989072 -.00001319  00000-0 -64802-4 0  9992,2 54067  53.2162 179.0757 0002297  45.6103 314.5077 15.08834360 11274,6917.898,95.438,541.352,538.174,0.0
54067.0,STARLINK-5174,PAYLOAD,2022-12-29 21:46:33,15.08837678,0.0002114,53.2176,177.2917,51.1403,308.9777,-3.7538e-05,-8.86e-06,0.0,0 STARLINK-5174,1 54067U 22136S   22363.90732723 -.00000886  00000-0 -37538-4 0  9999,2 54067  53.2176 177.2917 0002114  51.1403 308.9777 15.08837678 10852,6917.887,95.438,541.215,538.29,0.0
54067.0,STARLINK-5174,PAYLOAD,2022-12-30 18:26:33,15.08845594,0.0002231999999999,53.2163,173.4259,46.8566,313.2612,2.1471e-06,-2.54e-06,0.0,0 STARLINK-5174,1 54067U 22136S   22364.76844042 -.00000254  00000-0  21471-5 0  9990,2 54067  53.2163 173.4259 0002232  46.8566 313.2612 15.08845594 11468,6917.863,95.437,541.2719999999998,538.184,0.0
54067.0,STARLINK-5174,PAYLOAD,2022-12-31 03:58:52,15.08834743,0.0002191999999999,53.2162,171.6423,45.5017,314.6154,-9.3846e-05,-1.781e-05,0.0,0 STARLINK-5174,1 54067U 22136S   22365.16589098 -.00001781  00000-0 -93846-4 0  9993,2 54067  53.2162 171.6423 0002192  45.5017 314.6154 15.08834743 11529,6917.896,95.438,541.278,538.245,0.0
54067.0,STARLINK-5174,PAYLOAD,2022-12-31 18:17:21,15.08834882,0.0002245,53.2162,168.9659,44.8324,315.2849,1.5122e-05,-4.8e-07,0.0,0 STARLINK-5174,1 54067U 22136S   22365.76205012 -.00000048  00000-0  15122-4 0  9995,2 54067  53.2162 168.9659 0002245  44.8324 315.2849 15.08834882 11130,6917.896,95.438,541.314,538.2080000000002,0.0
54067.0,STARLINK-5174,PAYLOAD,2023-01-01 03:49:39,15.08840947,0.0002208,53.2168,167.1817,45.8089,314.3084,2.4121e-05,9.6e-07,0.0,0 STARLINK-5174,1 54067U 22136S   23001.15948631  .00000096  00000-0  24121-4 0  9998,2 54067  53.2168 167.1817 0002208  45.8089 314.3084 15.08840947 11670,6917.877,95.437,541.27,538.215,0.0
54067.0,STARLINK-5174,PAYLOAD,2023-01-01 19:43:31,15.08833999,0.0002211999999999,53.2174,164.2083,48.5174,311.6007,-3.4109e-05,-8.31e-06,0.0,0 STARLINK-5174,1 54067U 22136S   23001.82189403 -.00000831  00000-0 -34109-4 0  9992,2 54067  53.2174 164.2083 0002212  48.5174 311.6007 15.08833999 11292,6917.899,95.438,541.294,538.2330000000002,0.0
54067.0,STARLINK-5174,PAYLOAD,2023-01-01 22:54:17,15.08834926,0.0002215999999999,53.2172,163.6134,48.1929,311.9253,-2.6386e-05,-7.08e-06,0.0,0 STARLINK-5174,1 54067U 22136S   23001.95437357 -.00000708  00000-0 -26386-4 0  9991,2 54067  53.2172 163.6134 0002216  48.1929 311.9253 15.08834926 11790,6917.896,95.438,541.294,538.2280000000002,0.0
54067.0,STARLINK-5174,PAYLOAD,2023-01-02 10:01:59,15.08836614,0.0002251,53.2173,161.5316,45.7284,314.3893,6.8908e-05,8.08e-06,0.0,0 STARLINK-5174,1 54067U 22136S   23002.41805058  .00000808  00000-0  68908-4 0  9995,2 54067  53.2173 161.5316 0002251  45.7284 314.3893 15.08836614 11384,6917.891,95.438,541.313,538.1990000000002,0.0
54067.0,STARLINK-5174,PAYLOAD,2023-01-02 14:48:08,15.08840584,0.0002278999999999,53.2174,160.6398,45.9646,314.1533,7.7373e-05,9.43e-06,0.0,0 STARLINK-5174,1 54067U 22136S   23002.61676776  .00000943  00000-0  77373-4 0  9996,2 54067  53.2174 160.6398 0002279  45.9646 314.1533 15.08840584 11413,6917.879,95.438,541.32,538.1669999999998,0.0
54067.0,STARLINK-5174,PAYLOAD,2023-01-02 16:23:31,15.08843903,0.0002266,53.2175,160.3422,45.7075,314.4103,4.8875e-05,4.9000000000000005e-06,0.0,0 STARLINK-5174,1 54067U 22136S   23002.68300672  .00000490  00000-0  48875-4 0  9994,2 54067  53.2175 160.3422 0002266  45.7075 314.4103 15.08843903 11907,6917.868,95.437,541.3009999999998,538.1659999999998,0.0
54067.0,STARLINK-5174,PAYLOAD,2023-01-03 03:31:13,15.08841231,0.0002236,53.2163,158.2594,41.7851,318.3312,4.2467e-05,3.88e-06,0.0,0 STARLINK-5174,1 54067U 22136S   23003.14668687  .00000388  00000-0  42467-4 0  9996,2 54067  53.2163 158.2594 0002236  41.7851 318.3312 15.08841231 11496,6917.877,95.437,541.288,538.195,0.0
54067.0,STARLINK-5174,PAYLOAD,2023-01-03 19:25:04,15.08841906,0.0002233,53.2167,155.2878,43.5357,316.5811,6.1312e-05,6.88e-06,0.0,0 STARLINK-5174,1 54067U 22136S   23003.80908498  .00000688  00000-0  61312-4 0  9999,2 54067  53.2167 155.2878 0002233  43.5357 316.5811 15.08841906 12078,6917.875,95.437,541.284,538.195,0.0
